LEMUR-2-AMANDA-SVANTE   
1 48269U 21034B   26068.77637527  .00030872  00000+0  11134-2 0  9996
2 48269  97.5829 144.8625 0002703 205.4721 154.6385 15.28469003265849
STARLINK-31640          
1 59748U 24090U   26068.32392241 -.00001083  00000+0 -29843-4 0  9999
2 59748  42.9976 185.5973 0001859 191.7433 168.3375 15.27571730103387
